HAWK-6B                 
1 55324U 23011A   26161.10072262  .00004153  00000+0  18175-3 0  9999
2 55324  40.4991  33.4028 0003609 322.2576  37.7979 15.22865339186767
HAWK-6C                 
1 55326U 23011C   26160.37868959  .00004206  00000+0  18395-3 0  9998
2 55326  40.4982  34.4522 0004314 308.3612  51.6810 15.22867772186660
HAWK-6A                 
1 55327U 23011D   26161.10010640  .00004263  00000+0  18631-3 0  9993
2 55327  40.4993  31.8686 0003852 309.2271  50.8196 15.22867328186779
HAWK-7A                 
1 56191U 23054P   26160.96910145  .00001488  00000+0  58357-4 0  9998
2 56191  97.2724  48.4915 0004539  77.9623 282.2125 15.27279134175928
HAWK-7B                 
1 56193U 23054R   26161.23108624  .00005430  00000+0  20578-3 0  9996
2 56193  97.2742  47.0068 0004005  82.6967 277.4728 15.27291001175962
HAWK-7C                 
1 56200U 23054Y   26161.49304853  .00005185  00000+0  19663-3 0  9995
2 56200  97.2718  48.0329 0004045  73.9753 286.1931 15.27290034176009
